BANDWAGON-2 OBJECT D    
1 62380U 24247D   26068.52261193  .00011259  00000+0  40119-3 0  9994
2 62380  44.9954 115.6710 0003488 351.1453   8.9368 15.29076102 67732
STARLINK-34228          
1 64171U 25113B   26068.32418196  .00023985  00000+0  81915-3 0  9990
2 64171  53.1595  92.5130 0001043  94.1123 265.9997 15.30207314 45010
