[{"OBJECT_NAME":"BANDWAGON-2 OBJECT D","OBJECT_ID":"2024-247D","EPOCH":"2026-03-09T12:32:33.670752","MEAN_MOTION":15.29076102,"ECCENTRICITY":0.00034883,"INCLINATION":44.9954,"RA_OF_ASC_NODE":115.671,"ARG_OF_PERICENTER":351.1453,"MEAN_ANOMALY":8.9368,"EPHEMERIS_TYPE":0,"CLASSIFICATION_TYPE":"U","NORAD_CAT_ID":62380,"ELEMENT_SET_NO":999,"REV_AT_EPOCH":6773,"BSTAR":0.00040119131,"MEAN_MOTION_DOT":0.00011259,"MEAN_MOTION_DDOT":0},{"OBJECT_NAME":"STARLINK-34228","OBJECT_ID":"2025-113B","EPOCH":"2026-03-09T07:46:49.321344","MEAN_MOTION":15.30207314,"ECCENTRICITY":0.00010434,"INCLINATION":53.1595,"RA_OF_ASC_NODE":92.513,"ARG_OF_PERICENTER":94.1123,"MEAN_ANOMALY":265.9997,"EPHEMERIS_TYPE":0,"CLASSIFICATION_TYPE":"U","NORAD_CAT_ID":64171,"ELEMENT_SET_NO":999,"REV_AT_EPOCH":4501,"BSTAR":0.00081914976,"MEAN_MOTION_DOT":0.00023985,"MEAN_MOTION_DDOT":0}]
